OBJECT_NAME,OBJECT_ID,EPOCH,MEAN_MOTION,ECCENTRICITY,INCLINATION,RA_OF_ASC_NODE,ARG_OF_PERICENTER,MEAN_ANOMALY,EPHEMERIS_TYPE,CLASSIFICATION_TYPE,NORAD_CAT_ID,ELEMENT_SET_NO,REV_AT_EPOCH,BSTAR,MEAN_MOTION_DOT,MEAN_MOTION_DDOT
STARLINK-11259 [DTC],2024-152B,2026-07-18T03:52:42.157920,15.69706037,.0000837,53.1582,193.3367,124.8835,235.2262,0,U,60721,999,10932,.14674447E-4,.119E-4,0
STARLINK-11188 [DTC],2024-152C,2026-07-18T03:45:38.496384,15.69702145,.00011867,53.1606,193.3057,68.8776,291.2369,0,U,60722,999,10944,.14768193E-4,.12E-4,0
STARLINK-11272 [DTC],2024-152D,2026-07-18T03:31:31.169856,15.69701349,.00009851,53.1588,193.2394,80.6599,279.4530,0,U,60723,999,10932,-.1245365E-5,-.739E-5,0
STARLINK-11261 [DTC],2024-152E,2026-07-18T06:41:56.679072,15.69701414,.00011692,53.1610,192.6456,68.1481,291.9661,0,U,60724,999,10934,.17911128E-4,.1581E-4,0
STARLINK-11263 [DTC],2024-152F,2026-07-18T03:24:26.635680,15.69713474,.00006662,53.1583,193.2052,107.7217,252.3874,0,U,60725,999,10932,.6617684E-5,.214E-5,0
STARLINK-11235 [DTC],2024-152G,2026-07-18T06:20:45.152736,15.69704741,.00008564,53.1586,192.5466,88.0259,272.0857,0,U,60726,999,10947,.9335003E-5,.543E-5,0
STARLINK-11080 [DTC],2024-152H,2026-07-18T06:13:41.451456,15.69703311,.00008909,53.1588,192.5141,66.8819,293.2293,0,U,60727,999,10947,.4566594E-5,-.35E-6,0
STARLINK-11249 [DTC],2024-152J,2026-07-18T03:03:15.247584,15.69704169,.00010098,53.1595,193.1101,66.3998,293.7126,0,U,60728,999,10932,.9139852E-5,.519E-5,0
STARLINK-11146 [DTC],2024-152K,2026-07-18T05:59:33.529632,15.69696148,.00010803,53.1603,192.4362,85.9718,274.1424,0,U,60729,999,10947,.2518892E-4,.2462E-4,0
STARLINK-11255 [DTC],2024-152L,2026-07-18T04:20:48.520032,15.69709009,.00012357,53.1599,192.7286,72.4354,287.6798,0,U,60730,999,10934,.13818399E-4,.1085E-4,0
STARLINK-11254 [DTC],2024-152M,2026-07-18T04:13:44.904288,15.69704973,.00009445,53.1592,192.6949,72.6269,287.4852,0,U,60731,999,10934,.12166389E-4,.885E-5,0
STARLINK-11266 [DTC],2024-152N,2026-07-18T04:06:40.977504,15.69710362,.00010039,53.1594,192.6506,102.3337,257.7794,0,U,60732,999,10933,.6025442E-5,.142E-5,0
STARLINK-32253,2024-152P,2026-07-18T00:00:02.000160,15.34372213,.00012615,53.1598,22.9289,60.9175,345.9462,0,U,60733,999,587,.12467722E-2,.41946E-3,0
STARLINK-32179,2024-152Q,2026-07-17T22:04:58.221120,15.34390991,.00012675,53.1619,23.2474,86.7567,273.3580,0,U,60734,999,10666,.28311228E-4,.58E-5,0
STARLINK-32289,2024-152T,2026-07-17T22:23:08.781792,15.34398328,.00011806,53.1613,23.3242,92.1403,267.9735,0,U,60737,999,10679,.1008665E-3,.3033E-4,0
STARLINK-32304,2024-152U,2026-07-17T22:41:19.661280,15.34392750,.00009542,53.1620,23.4001,77.7582,282.3527,0,U,60738,999,10679,.24775988E-4,.461E-5,0
STARLINK-32235,2024-152V,2026-07-18T06:00:02.000160,15.34382829,.00007521,53.1594,22.0441,39.9421,169.0079,0,U,60739,999,581,.58630001E-4,.1604E-4,0
STARLINK-32315,2024-152W,2026-07-18T06:00:02.000160,15.33550751,.00012351,53.1595,22.0600,95.5661,104.6323,0,U,60740,999,576,-.13653255E-3,-.486E-4,0
2024-153A,2024-153A,2026-07-18T07:06:31.067424,15.50772649,.00040231,97.6767,343.0259,7.9037,352.2276,0,U,60745,999,10492,.71299106E-3,.41127E-3,0
2024-153B,2024-153B,2026-07-18T07:16:26.474880,15.34068915,.00103734,97.6822,339.9880,57.2551,302.9689,0,U,60746,999,10472,.21502747E-3,.7015E-4,0
2024-153C,2024-153C,2026-07-18T07:21:44.107200,15.42963017,.00081769,97.6811,343.3577,47.0670,313.1262,0,U,60747,999,10494,.33099094E-3,.14502E-3,0
2024-153D,2024-153D,2026-07-18T07:59:18.045600,15.28687674,.00032582,97.6828,338.2012,101.9452,258.2153,0,U,60748,999,10460,.3017361E-3,.834E-4,0
2024-153E,2024-153E,2026-07-18T07:37:57.562176,15.27467330,.0002648,97.6756,337.5311,119.4870,240.6633,0,U,60749,999,10458,.30586545E-3,.8145E-4,0
2024-153F,2024-153F,2026-07-18T08:16:40.853856,15.26699982,.00067877,97.6753,336.7527,134.5900,225.5893,0,U,60750,999,10455,.2876417E-3,.7481E-4,0
STARLINK-11242 [DTC],2024-154A,2026-07-18T07:29:28.354272,15.69704717,.00009206,53.1588,207.0847,60.4099,299.7011,0,U,60903,999,10903,.201862E-5,-.344E-5,0
STARLINK-11256 [DTC],2024-154B,2026-07-18T04:19:02.564256,15.69717477,.00005427,53.1607,207.6814,137.1600,222.9460,0,U,60904,999,10901,-.18417488E-4,-.2819E-4,0
STARLINK-11159 [DTC],2024-154C,2026-07-18T04:05:02.991264,15.69715912,.00012542,53.1590,208.3501,111.7150,248.4002,0,U,60905,999,10900,.24279656E-4,.2354E-4,0
STARLINK-11264 [DTC],2024-154D,2026-07-18T00:54:37.365408,15.69708209,.00008796,53.1598,208.9465,53.3897,306.7202,0,U,60906,999,10898,.12872802E-4,.971E-5,0
STARLINK-11226 [DTC],2024-154E,2026-07-16T10:35:28.288032,15.69704671,.0000835,53.1583,216.7604,79.9897,280.1215,0,U,60907,999,10873,.35102E-5,-.163E-5,0
STARLINK-11229 [DTC],2024-154F,2026-07-18T00:40:29.852256,15.69701415,.00010345,53.1593,208.8817,69.6235,290.4894,0,U,60908,999,10898,.16704783E-4,.1435E-4,0
