STARLINK-11259 [DTC]    
1 60721U 24152B   26199.16159905  .00001190  00000+0  14674-4 0  9999
2 60721  53.1582 193.3367 0000837 124.8835 235.2262 15.69706037109324
STARLINK-11188 [DTC]    
1 60722U 24152C   26199.15669556  .00001200  00000+0  14768-4 0  9993
2 60722  53.1606 193.3057 0001186  68.8776 291.2369 15.69702145109446
STARLINK-11272 [DTC]    
1 60723U 24152D   26199.14688854 -.00000739  00000+0 -12454-5 0  9994
2 60723  53.1588 193.2394 0000985  80.6599 279.4530 15.69701349109320
STARLINK-11261 [DTC]    
1 60724U 24152E   26199.27912823  .00001581  00000+0  17911-4 0  9991
2 60724  53.1610 192.6456 0001169  68.1481 291.9661 15.69701414109344
STARLINK-11263 [DTC]    
1 60725U 24152F   26199.14197495  .00000214  00000+0  66177-5 0  9999
2 60725  53.1583 193.2052 0000666 107.7217 252.3874 15.69713474109325
STARLINK-11235 [DTC]    
1 60726U 24152G   26199.26441149  .00000543  00000+0  93350-5 0  9999
2 60726  53.1586 192.5466 0000856  88.0259 272.0857 15.69704741109471
STARLINK-11080 [DTC]    
1 60727U 24152H   26199.25950754 -.00000035  00000+0  45666-5 0  9990
2 60727  53.1588 192.5141 0000890  66.8819 293.2293 15.69703311109479
STARLINK-11249 [DTC]    
1 60728U 24152J   26199.12725981  .00000519  00000+0  91399-5 0  9999
2 60728  53.1595 193.1101 0001009  66.3998 293.7126 15.69704169109323
STARLINK-11146 [DTC]    
1 60729U 24152K   26199.24969363  .00002462  00000+0  25189-4 0  9999
2 60729  53.1603 192.4362 0001080  85.9718 274.1424 15.69696148109478
STARLINK-11255 [DTC]    
1 60730U 24152L   26199.18111713  .00001085  00000+0  13818-4 0  9998
2 60730  53.1599 192.7286 0001235  72.4354 287.6798 15.69709009109341
STARLINK-11254 [DTC]    
1 60731U 24152M   26199.17621417  .00000885  00000+0  12166-4 0  9997
2 60731  53.1592 192.6949 0000944  72.6269 287.4852 15.69704973109347
STARLINK-11266 [DTC]    
1 60732U 24152N   26199.17130761  .00000142  00000+0  60254-5 0  9993
2 60732  53.1594 192.6506 0001003 102.3337 257.7794 15.69710362109336
STARLINK-32253          
1 60733U 24152P   26199.00002315  .00041946  00000+0  12468-2 0  9997
2 60733  53.1598  22.9289 0001261  60.9175 345.9462 15.34372213  5876
STARLINK-32179          
1 60734U 24152Q   26198.92011830  .00000580  00000+0  28311-4 0  9995
2 60734  53.1619  23.2474 0001267  86.7567 273.3580 15.34390991106665
STARLINK-32289          
1 60737U 24152T   26198.93274053  .00003033  00000+0  10087-3 0  9993
2 60737  53.1613  23.3242 0001180  92.1403 267.9735 15.34398328106797
STARLINK-32304          
1 60738U 24152U   26198.94536645  .00000461  00000+0  24776-4 0  9996
2 60738  53.1620  23.4001 0000954  77.7582 282.3527 15.34392750106798
STARLINK-32235          
1 60739U 24152V   26199.25002315  .00001604  00000+0  58630-4 0  9990
2 60739  53.1594  22.0441 0000752  39.9421 169.0079 15.34382829  5810
STARLINK-32315          
1 60740U 24152W   26199.25002315 -.00004860  00000+0 -13653-3 0  9996
2 60740  53.1595  22.0600 0001235  95.5661 104.6323 15.33550751  5762
2024-153A               
1 60745U 24153A   26199.29619291  .00041127  00000+0  71299-3 0  9998
2 60745  97.6767 343.0259 0004023   7.9037 352.2276 15.50772649104926
2024-153B               
1 60746U 24153B   26199.30308420  .00007015  00000+0  21503-3 0  9991
2 60746  97.6822 339.9880 0010373  57.2551 302.9689 15.34068915104721
2024-153C               
1 60747U 24153C   26199.30676050  .00014502  00000+0  33099-3 0  9991
2 60747  97.6811 343.3577 0008176  47.0670 313.1262 15.42963017104940
2024-153D               
1 60748U 24153D   26199.33284775  .00008340  00000+0  30174-3 0  9998
2 60748  97.6828 338.2012 0003258 101.9452 258.2153 15.28687674104607
2024-153E               
1 60749U 24153E   26199.31802734  .00008145  00000+0  30587-3 0  9999
2 60749  97.6756 337.5311 0002648 119.4870 240.6633 15.27467330104581
2024-153F               
1 60750U 24153F   26199.34491729  .00007481  00000+0  28764-3 0  9998
2 60750  97.6753 336.7527 0006787 134.5900 225.5893 15.26699982104556
STARLINK-11242 [DTC]    
1 60903U 24154A   26199.31213373 -.00000344  00000+0  20186-5 0  9997
2 60903  53.1588 207.0847 0000920  60.4099 299.7011 15.69704717109036
STARLINK-11256 [DTC]    
1 60904U 24154B   26199.17989079 -.00002819  00000+0 -18417-4 0  9998
2 60904  53.1607 207.6814 0000542 137.1600 222.9460 15.69717477109010
STARLINK-11159 [DTC]    
1 60905U 24154C   26199.17017351  .00002354  00000+0  24280-4 0  9991
2 60905  53.1590 208.3501 0001254 111.7150 248.4002 15.69715912109008
STARLINK-11264 [DTC]    
1 60906U 24154D   26199.03793247  .00000971  00000+0  12873-4 0  9990
2 60906  53.1598 208.9465 0000879  53.3897 306.7202 15.69708209108980
STARLINK-11226 [DTC]    
1 60907U 24154E   26197.44129963 -.00000163  00000+0  35102-5 0  9997
2 60907  53.1583 216.7604 0000835  79.9897 280.1215 15.69704671108734
STARLINK-11229 [DTC]    
1 60908U 24154F   26199.02812329  .00001435  00000+0  16705-4 0  9998
2 60908  53.1593 208.8817 0001034  69.6235 290.4894 15.69701415108985
